QIANFAN-9               
1 60387U 24140J   25211.88638426  .00000132  00000+0  18559-3 0  9997
2 60387  88.9849 313.2659 0015247 220.8525 139.1484 13.50956215 49127
QIANFAN-10              
1 60388U 24140K   25211.89052550  .00000122  00000+0  17066-3 0  9998
2 60388  88.9858 312.6007 0014526 196.6643 163.4033 13.50958508 49259
QIANFAN-11              
1 60389U 24140L   25211.85345042  .00000124  00000+0  17333-3 0  9995
2 60389  88.9785 313.2914 0013287 219.6817 140.3363 13.50958641 48904
QIANFAN-12              
1 60390U 24140M   25211.87396808  .00000128  00000+0  18024-3 0  9997
2 60390  88.9828 313.2737 0011864 227.7337 132.2808 13.50958497 49031
QIANFAN-13              
1 60391U 24140N   25211.91924909  .00000142  00000+0  20113-3 0  9990
2 60391  88.9840 313.3524 0011612 230.4383 129.5743 13.50958383 49068
QIANFAN-14              
1 60392U 24140P   25211.79575928  .00000148  00000+0  21069-3 0  9997
2 60392  88.9819 313.2915 0015273 232.5303 127.4460 13.50959446 49053
QIANFAN-15              
1 60393U 24140Q   25211.87818576  .00000122  00000+0  16975-3 0  9998
2 60393  88.9843 313.2077 0011530 215.1808 144.8583 13.50956207 49050
QIANFAN-16              
1 60394U 24140R   25211.86581491  .00000135  00000+0  19140-3 0  9992
2 60394  88.9846 313.3248 0013098 235.7598 124.2313 13.50958526 48968
